RADUGA 1 [-]            
1 08513U 75123A   20026.79979903 -.00000109  00000-0  00000+0 0  9998
2 08513   8.6035 300.2790 0003403 202.6595 348.4176  1.00247431171544
RADUGA 2 [-]            
1 09416U 76092A   20026.78917465  .00000019  00000-0  00000+0 0  9990
2 09416   9.2481 302.1217 0029739 335.0553 195.9026  1.00271515105938
RADUGA 3 [-]            
1 10159U 77071A   20025.72242350 -.00000354  00000-0  00000+0 0  9994
2 10159   9.8404 304.4605 0005820 228.7317 325.0435  1.00259706153641
RADUGA 4 [-]            
1 10987U 78073A   20027.17028948  .00000143  00000-0  00000+0 0  9997
2 10987  10.4192 307.5096 0012309 342.2991 299.2860  1.00238283 96197
RADUGA 5 [-]            
1 11343U 79035A   20026.01786490 -.00000113  00000-0  00000-0 0  9997
2 11343  10.8444 309.9404 0003517  90.7746 167.5579  1.00296192105942
RADUGA 6 [-]            
1 11708U 80016A   20026.40257591  .00000137  00000-0  00000+0 0  9995
2 11708  11.1552 312.6133 0001618 350.1583   9.9495  1.00289668 98748
RADUGA 7 [-]            
1 12003U 80081A   20026.14335633 -.00000043  00000-0  00000+0 0  9998
2 12003  11.3044 314.3512 0009402 269.5645 202.4393  1.00161105100012
RADUGA 8 [-]            
1 12351U 81027A   20026.79979903 -.00000248  00000-0  00000+0 0  9997
2 12351  11.6240 315.0329 0081003 203.1358 343.5058  1.00415854 99111
RADUGA 9 [-]            
1 12618U 81069A   20026.92987020  .00000136  00000-0  00000+0 0  9998
2 12618  11.7905 317.5170 0003962  39.2094 142.8012  1.00308141104937
RADUGA 10 [-]           
1 12897U 81102A   20025.85674539 -.00000037  00000-0  00000-0 0  9996
2 12897  11.8593 318.3655 0001863 113.5633  69.1401  1.00290081 93933
RADUGA 11 [-]           
1 13669U 82113A   20026.38390032 -.00000180  00000-0  00000-0 0  9998
2 13669  13.6202 330.4821 0036708 235.3394 229.5482  0.97709988 98731
RADUGA 12 [-]           
1 13974U 83028A   20026.09029521 -.00000057  00000-0  00000-0 0  9996
2 13974  12.7746 327.2453 0004859  14.1521 246.5855  1.00251496145978
RADUGA 13 [-]           
1 14307U 83088A   20026.84131309 -.00000155  00000-0  00000+0 0  9992
2 14307  13.8117 332.0978 0020458  12.8709 209.1720  0.98174440 96021
RADUGA 14 [-]           
1 14725U 84016A   20025.95648204 -.00000103  00000-0  00000+0 0  9999
2 14725  12.8814 330.6032 0003741  43.9670 168.8165  1.00299279 94676
RADUGA 15 [-]           
1 15057U 84063A   20026.73055203 -.00000350  00000-0  00000+0 0  9992
2 15057  12.9719 331.5579 0002722  68.2858 117.8686  1.00261371117694
RADUGA 16 [-]           
1 15946U 85070A   20026.26086874 -.00000301  00000-0  00000-0 0  9991
2 15946  13.2961 335.9345 0003462 349.0830 198.8653  1.00341286 98825
RADUGA 17 [-]           
1 16250U 85107A   20026.29661035 -.00000285  00000-0  00000-0 0  9993
2 16250  13.3757 337.2038 0007845 159.7211  53.7986  1.00166979128297
RADUGA 18 [-]           
1 16497U 86007A   20026.77909069 -.00000232  00000-0  00000+0 0  9992
2 16497  14.1148 339.6905 0069914 140.0205  54.9555  0.98813596122854
RADUGA 19 [-]           
1 17046U 86082A   20027.07157649 -.00000125  00000-0  00000+0 0  9990
2 17046  14.4095 343.3640 0008283 107.0321 259.5337  0.98461042119987
RADUGA 20 [-]           
1 17611U 87028A   20025.42236912 -.00000078  00000-0  00000-0 0  9995
2 17611  16.3242 346.9390 0025049 107.1784 254.6578  0.95961220115916
RADUGA 21 [-]           
1 18631U 87100A   20026.14198775 -.00000000  00000-0  00000-0 0  9998
2 18631  14.4359 344.7370 0003477  11.4014  54.6372  1.00354109117680
RADUGA 22 [-]           
1 19596U 88095A   20027.00225663  .00000086  00000-0  00000+0 0  9998
2 19596  14.2576 348.6492 0003872  50.9897 139.1077  1.00170622 98308
RADUGA 23 [-]           
1 19928U 89030A   20026.06586035  .00000122  00000-0  00000-0 0  9997
2 19928  14.3377 350.3891 0015958 135.1603  59.2176  1.00317972111443
RADUGA-1 1 [-]          
1 20083U 89048A   20026.19806486 -.00000240  00000-0  00000-0 0  9991
2 20083  14.9875 353.2143 0019252  78.7649  97.2180  0.98710257108230
RADUGA 24 [-]           
1 20367U 89098A   20026.37688377 -.00000256  00000-0  00000-0 0  9995
2 20367  14.8192 352.8077 0003583 339.1449  21.0556  1.00218315109560
RADUGA 25 [-]           
1 20499U 90016A   20027.10118227  .00000066  00000-0  00000+0 0  9994
2 20499  14.5654 353.3309 0002590 359.5994 357.2393  1.00268362109557
RADUGA 26 [-]           
1 21016U 90112A   20027.00251832  .00000067  00000-0  00000+0 0  9997
2 21016  14.7439 356.5038 0007571  25.5221 157.7329  1.00265085106847
RADUGA-1 2 [-]          
1 21038U 90116A   20026.93320134 -.00000011  00000-0  00000+0 0  9998
2 21038  14.7785 356.5961 0007699  41.6339 128.5143  1.00219392106514
RADUGA 27 [-]           
1 21132U 91014A   20026.15874645  .00000116  00000-0  00000+0 0  9991
2 21132  15.3039 356.5004 0005645   1.7243 211.6784  1.00322881105899
RADUGA 28 [-]           
1 21821U 91087A   20026.36726083 -.00000354  00000-0  00000-0 0  9997
2 21821  14.9184 359.8758 0004697  46.9191 318.0214  1.00216735102922
RADUGA 29 [-]           
1 22557U 93013A   20026.36743529 -.00000369  00000-0  00000-0 0  9995
2 22557  14.9445   4.0139 0005235  41.4165 320.2812  1.00359723 98288
RADUGA 30 [-]           
1 22836U 93062A   20025.75328715 -.00000173  00000-0  00000+0 0  9999
2 22836  14.9012   5.8982 0006758 316.6850 154.2899  1.00273930 96364
RADUGA-1 3 [-]          
1 22981U 94008A   20026.84740097 -.00000301  00000-0  00000+0 0  9996
2 22981  14.9295   7.0634 0004533 349.9091 169.5872  1.00306427 95111
RADUGA 31 [-]           
1 23010U 94012A   20027.17028948  .00000106  00000-0  00000+0 0  9998
2 23010  14.8967   7.0418 0005349  12.9091 211.2042  1.00278773 94949
RADUGA 32 [-]           
1 23448U 94087A   20025.96349760 -.00000164  00000-0  00000-0 0  9994
2 23448  14.7627   9.6711 0004509 249.2988 292.7311  1.00275142109472
RADUGA-1 4 [-]          
1 25642U 99010A   20026.22475993  .00000119  00000-0  00000-0 0  9990
2 25642  14.8109  21.5813 0005086 284.1059 295.1538  1.00267781 76549
RADUGA-1 5 [-]          
1 26477U 00049A   20026.17050284  .00000070  00000-0  00000+0 0  9992
2 26477  12.5808  25.1331 0005955 346.2013 228.5058  1.00224235 71085
RADUGA-1 6 [-]          
1 26936U 01045A   20026.37258222 -.00000171  00000-0  00000+0 0  9996
2 26936  12.4716  31.0092 0011784 154.0236 208.5226  0.97745320 65762
RADUGA-1 7 [-]          
1 28194U 04010A   20026.00784840 -.00000340  00000-0  00000+0 0  9997
2 28194  10.9434  38.0970 0003591 275.2122 279.3815  1.00187553 57998
RADUGA-1M 1 [-]         
1 32373U 07058A   20026.17757630  .00000091  00000-0  00000-0 0  9994
2 32373   5.0175  69.3279 0004974 271.6768 270.0611  0.99392744 29190
RADUGA-1 8 [-]          
1 34264U 09010A   20026.14515789 -.00000003  00000-0  00000-0 0  9993
2 34264   7.5446  60.6172 0014218 325.5056 224.9068  0.99814526 39873
RADUGA-1M 2 [+]         
1 36358U 10002A   20027.09285382 -.00000189  00000-0  00000+0 0  9994
2 36358   0.0457 247.6394 0002304  87.5978 268.9907  1.00271544 36612
RADUGA-1M 3 [+]         
1 39375U 13062A   20026.88868639  .00000150  00000-0  10000-3 0  9995
2 39375   0.0990 103.4892 0003308 226.0530 151.4205  1.00281434 22731